{
  "type": "FeatureCollection",
  "features": [
    {
      "type": "Feature",
      "properties": {
        "norad_id": 28054,
        "name": "DMSP 5D-3 F16 (USA 172)",
        "group": "weather",
        "lat": 7.024396672435305,
        "lon": -169.56825408553448,
        "alt_km": 849.2815950574195,
        "timestamp": "2025-12-17T19:34:07.687589+00:00",
        "meta_object_name": "DMSP 5D-3 F16 (USA 172)",
        "meta_object_id": "2003-048A",
        "meta_epoch": "2025-12-17T07:09:25.189344",
        "meta_mean_motion": 14.14425966,
        "meta_eccentricity": 0.00063532,
        "meta_inclination": 99.0042,
        "meta_ra_of_asc_node": 8.7911,
        "meta_arg_of_pericenter": 306.4111,
        "meta_mean_anomaly": 114.5414,
        "meta_ephemeris_type": 0,
        "meta_classification_type": "U",
        "meta_norad_cat_id": 28054,
        "meta_element_set_no": 999,
        "meta_rev_at_epoch": 14377,
        "meta_bstar": 8.585697e-05,
        "meta_mean_motion_dot": 1.19e-06,
        "meta_mean_motion_ddot": 0,
        "tle_line1": "1 28054U 03048A   25351.29820821  .00000119  00000+0  85857-4 0  9999",
        "tle_line2": "2 28054  99.0042   8.7911 0006353 306.4111 114.5414 14.14425966143778"
      },
      "geometry": {
        "type": "Point",
        "coordinates": [
          -169.56825408553448,
          7.024396672435305
        ]
      }
    },
    {
      "type": "Feature",
      "properties": {
        "norad_id": 28912,
        "name": "METEOSAT-9 (MSG-2)",
        "group": "weather",
        "lat": 1.5783247050435047,
        "lon": 65.87449376913862,
        "alt_km": 35798.180755347465,
        "timestamp": "2025-12-17T19:34:07.687638+00:00",
        "meta_object_name": "METEOSAT-9 (MSG-2)",
        "meta_object_id": "2005-049B",
        "meta_epoch": "2025-12-16T20:25:21.138240",
        "meta_mean_motion": 1.00278778,
        "meta_eccentricity": 0.00033903,
        "meta_inclination": 8.9483,
        "meta_ra_of_asc_node": 55.9385,
        "meta_arg_of_pericenter": 190.7739,
        "meta_mean_anomaly": 191.1196,
        "meta_ephemeris_type": 0,
        "meta_classification_type": "U",
        "meta_norad_cat_id": 28912,
        "meta_element_set_no": 999,
        "meta_rev_at_epoch": 517,
        "meta_bstar": 0,
        "meta_mean_motion_dot": 1.4e-06,
        "meta_mean_motion_ddot": 0,
        "tle_line1": "1 28912U 05049B   25350.85093910  .00000140  00000+0  00000+0 0  9993",
        "tle_line2": "2 28912   8.9483  55.9385 0003390 190.7739 191.1196  1.00278778  5173"
      },
      "geometry": {
        "type": "Point",
        "coordinates": [
          65.87449376913862,
          1.5783247050435047
        ]
      }
    },
    {
      "type": "Feature",
      "properties": {
        "norad_id": 29522,
        "name": "DMSP 5D-3 F17 (USA 191)",
        "group": "weather",
        "lat": 56.87145618531185,
        "lon": -169.26834070475823,
        "alt_km": 836.7779974955165,
        "timestamp": "2025-12-17T19:34:07.687657+00:00",
        "meta_object_name": "DMSP 5D-3 F17 (USA 191)",
        "meta_object_id": "2006-050A",
        "meta_epoch": "2025-12-17T07:06:47.536992",
        "meta_mean_motion": 14.14921595,
        "meta_eccentricity": 0.00095819,
        "meta_inclination": 98.7391,
        "meta_ra_of_asc_node": 356.5907,
        "meta_arg_of_pericenter": 211.0212,
        "meta_mean_anomaly": 149.0397,
        "meta_ephemeris_type": 0,
        "meta_classification_type": "U",
        "meta_norad_cat_id": 29522,
        "meta_element_set_no": 999,
        "meta_rev_at_epoch": 98669,
        "meta_bstar": 0.00010177087,
        "meta_mean_motion_dot": 1.53e-06,
        "meta_mean_motion_ddot": 0,
        "tle_line1": "1 29522U 06050A   25351.29638353  .00000153  00000+0  10177-3 0  9993",
        "tle_line2": "2 29522  98.7391 356.5907 0009581 211.0212 149.0397 14.14921595986698"
      },
      "geometry": {
        "type": "Point",
        "coordinates": [
          -169.26834070475823,
          56.87145618531185
        ]
      }
    },
    {
      "type": "Feature",
      "properties": {
        "norad_id": 32958,
        "name": "FENGYUN 3A",
        "group": "weather",
        "lat": -76.8486170336413,
        "lon": -27.993623254982243,
        "alt_km": 828.8960632000744,
        "timestamp": "2025-12-17T19:34:07.687672+00:00",
        "meta_object_name": "FENGYUN 3A",
        "meta_object_id": "2008-026A",
        "meta_epoch": "2025-12-17T08:06:12.122784",
        "meta_mean_motion": 14.19516114,
        "meta_eccentricity": 0.00077435,
        "meta_inclination": 98.6701,
        "meta_ra_of_asc_node": 290.7676,
        "meta_arg_of_pericenter": 295.7922,
        "meta_mean_anomaly": 64.2455,
        "meta_ephemeris_type": 0,
        "meta_classification_type": "U",
        "meta_norad_cat_id": 32958,
        "meta_element_set_no": 999,
        "meta_rev_at_epoch": 90960,
        "meta_bstar": 5.7358549e-05,
        "meta_mean_motion_dot": 7.8e-07,
        "meta_mean_motion_ddot": 0,
        "tle_line1": "1 32958U 08026A   25351.33764031  .00000078  00000+0  57359-4 0  9993",
        "tle_line2": "2 32958  98.6701 290.7676 0007743 295.7922  64.2455 14.19516114909607"
      },
      "geometry": {
        "type": "Point",
        "coordinates": [
          -27.993623254982243,
          -76.8486170336413
        ]
      }
    },
    {
      "type": "Feature",
      "properties": {
        "norad_id": 35491,
        "name": "GOES 14",
        "group": "weather",
        "lat": -0.06653152003978206,
        "lon": -92.75087132799624,
        "alt_km": 35832.954745185445,
        "timestamp": "2025-12-17T19:34:07.687692+00:00",
        "meta_object_name": "GOES 14",
        "meta_object_id": "2009-033A",
        "meta_epoch": "2025-12-17T07:00:12.350304",
        "meta_mean_motion": 1.00096677,
        "meta_eccentricity": 5.449e-05,
        "meta_inclination": 1.2143,
        "meta_ra_of_asc_node": 85.3537,
        "meta_arg_of_pericenter": 173.8745,
        "meta_mean_anomaly": 179.3636,
        "meta_ephemeris_type": 0,
        "meta_classification_type": "U",
        "meta_norad_cat_id": 35491,
        "meta_element_set_no": 999,
        "meta_rev_at_epoch": 476,
        "meta_bstar": 0,
        "meta_mean_motion_dot": 9e-08,
        "meta_mean_motion_ddot": 0,
        "tle_line1": "1 35491U 09033A   25351.29180961  .00000009  00000+0  00000+0 0  9996",
        "tle_line2": "2 35491   1.2143  85.3537 0000544 173.8745 179.3636  1.00096677  4762"
      },
      "geometry": {
        "type": "Point",
        "coordinates": [
          -92.75087132799624,
          -0.06653152003978206
        ]
      }
    },
    {
      "type": "Feature",
      "properties": {
        "norad_id": 35951,
        "name": "DMSP 5D-3 F18 (USA 210)",
        "group": "weather",
        "lat": -13.21541151258662,
        "lon": -29.704366052275887,
        "alt_km": 843.5516935683227,
        "timestamp": "2025-12-17T19:34:07.687713+00:00",
        "meta_object_name": "DMSP 5D-3 F18 (USA 210)",
        "meta_object_id": "2009-057A",
        "meta_epoch": "2025-12-17T04:21:20.943360",
        "meta_mean_motion": 14.14772121,
        "meta_eccentricity": 0.00119659,
        "meta_inclination": 98.8837,
        "meta_ra_of_asc_node": 327.5601,
        "meta_arg_of_pericenter": 51.1194,
        "meta_mean_anomaly": 309.1045,
        "meta_ephemeris_type": 0,
        "meta_classification_type": "U",
        "meta_norad_cat_id": 35951,
        "meta_element_set_no": 999,
        "meta_rev_at_epoch": 83385,
        "meta_bstar": 0.00015709116,
        "meta_mean_motion_dot": 2.58e-06,
        "meta_mean_motion_ddot": 0,
        "tle_line1": "1 35951U 09057A   25351.18149240  .00000258  00000+0  15709-3 0  9998",
        "tle_line2": "2 35951  98.8837 327.5601 0011965  51.1194 309.1045 14.14772121833854"
      },
      "geometry": {
        "type": "Point",
        "coordinates": [
          -29.704366052275887,
          -13.21541151258662
        ]
      }
    },
    {
      "type": "Feature",
      "properties": {
        "norad_id": 36411,
        "name": "EWS-G2 (GOES 15)",
        "group": "weather",
        "lat": -0.03800155937278369,
        "lon": 81.5855072050134,
        "alt_km": 35809.70095055121,
        "timestamp": "2025-12-17T19:34:07.687728+00:00",
        "meta_object_name": "EWS-G2 (GOES 15)",
        "meta_object_id": "2010-008A",
        "meta_epoch": "2025-12-17T05:03:25.103808",
        "meta_mean_motion": 1.0027069,
        "meta_eccentricity": 0.00055095,
        "meta_inclination": 0.8246,
        "meta_ra_of_asc_node": 86.0762,
        "meta_arg_of_pericenter": 176.3951,
        "meta_mean_anomaly": 320.8525,
        "meta_ephemeris_type": 0,
        "meta_classification_type": "U",
        "meta_norad_cat_id": 36411,
        "meta_element_set_no": 999,
        "meta_rev_at_epoch": 5781,
        "meta_bstar": 0,
        "meta_mean_motion_dot": 6.2e-07,
        "meta_mean_motion_ddot": 0,
        "tle_line1": "1 36411U 10008A   25351.21070722  .00000062  00000+0  00000+0 0  9997",
        "tle_line2": "2 36411   0.8246  86.0762 0005509 176.3951 320.8525  1.00270690 57818"
      },
      "geometry": {
        "type": "Point",
        "coordinates": [
          81.5855072050134,
          -0.03800155937278369
        ]
      }
    }
  ]
}